[
    {
        "CONSTELLATION": "00 AA TEST",
        "CDM_ID": "29759297",
        "FILENAME": "000000226_conj_000035929_2020065072654_1407.xml",
        "INSERT_EPOCH": "2020-02-28 19:22:55",
        "CCSDS_CDM_VERS": "1.0",
        "CREATION_DATE": "2020-02-28 16:50:37",
        "CREATION_DATE_FRACTION": "0",
        "ORIGINATOR": "JSPOC",
        "MESSAGE_FOR": "TIROS 4",
        "MESSAGE_ID": "000000226_conj_000035929_2020065072654_0591730031407",
        "COMMENT_EMERGENCY_REPORTABLE": null,
        "TCA": "2020-03-05 07:26:54",
        "TCA_FRACTION": "974",
        "MISS_DISTANCE": "1780",
        "MISS_DISTANCE_UNIT": "m",
        "RELATIVE_SPEED": "12709",
        "RELATIVE_SPEED_UNIT": "m\/s",
        "RELATIVE_POSITION_R": "-1761.2",
        "RELATIVE_POSITION_R_UNIT": "m",
        "RELATIVE_POSITION_T": "150.1",
        "RELATIVE_POSITION_T_UNIT": "m",
        "RELATIVE_POSITION_N": "213.7",
        "RELATIVE_POSITION_N_UNIT": "m",
        "RELATIVE_VELOCITY_R": "-82.1",
        "RELATIVE_VELOCITY_R_UNIT": "m\/s",
        "RELATIVE_VELOCITY_T": "-10783.7",
        "RELATIVE_VELOCITY_T_UNIT": "m\/s",
        "RELATIVE_VELOCITY_N": "6726.4",
        "RELATIVE_VELOCITY_N_UNIT": "m\/s",
        "COMMENT_SCREENING_OPTION": "Screening Option = Covariance",
        "COLLISION_PROBABILITY": "0",
        "COLLISION_PROBABILITY_METHOD": "FOSTER-1992",
        "SAT1_COMMENT_SCREENING_DATA_SOURCE": "Screened with = inertial state vector.",
        "SAT1_OBJECT": "OBJECT1",
        "SAT1_OBJECT_DESIGNATOR": "226",
        "SAT1_CATALOG_NAME": "SATCAT",
        "SAT1_OBJECT_NAME": "TIROS 4",
        "SAT1_INTERNATIONAL_DESIGNATOR": "1962-002A",
        "SAT1_OBJECT_TYPE": "PAYLOAD",
        "SAT1_OPERATOR_CONTACT_POSITION": "https:\/\/www.space-track.org\/expandedspacedata\/query\/class\/organization\/object\/~~226\/orderby\/ORG_NAME,INFO_ID\/format\/html\/emptyresult\/show\/",
        "SAT1_OPERATOR_ORGANIZATION": "NONE",
        "SAT1_OPERATOR_PHONE": "https:\/\/www.space-track.org\/expandedspacedata\/query\/class\/organization\/object\/~~226\/orderby\/ORG_NAME,INFO_ID\/format\/html\/emptyresult\/show\/",
        "SAT1_OPERATOR_EMAIL": "https:\/\/www.space-track.org\/expandedspacedata\/query\/class\/organization\/object\/~~226\/orderby\/ORG_NAME,INFO_ID\/format\/html\/emptyresult\/show\/",
        "SAT1_EPHEMERIS_NAME": "NONE",
        "SAT1_COVARIANCE_METHOD": "CALCULATED",
        "SAT1_MANEUVERABLE": "N\/A",
        "SAT1_REF_FRAME": "ITRF",
        "SAT1_GRAVITY_MODEL": "EGM-96: 36D 36O",
        "SAT1_ATMOSPHERIC_MODEL": "JBH09",
        "SAT1_N_BODY_PERTURBATIONS": "MOON,SUN",
        "SAT1_SOLAR_RAD_PRESSURE": "YES",
        "SAT1_EARTH_TIDES": "YES",
        "SAT1_INTRACK_THRUST": "NO",
        "SAT1_COMMENT_COVARIANCE_SCALE_FACTOR": "Covariance Scale Factor = 1.000000",
        "SAT1_COMMENT_EXCLUSION_VOLUME_RADIUS": "Exclusion Volume Radius = 5.000000 [m]",
        "SAT1_TIME_LASTOB_START": "2019-09-01 16:50:37",
        "SAT1_TIME_LASTOB_START_FRACTION": "0",
        "SAT1_TIME_LASTOB_END": "2020-02-26 16:50:37",
        "SAT1_TIME_LASTOB_END_FRACTION": "0",
        "SAT1_RECOMMENDED_OD_SPAN": "6.45",
        "SAT1_RECOMMENDED_OD_SPAN_UNIT": "d",
        "SAT1_ACTUAL_OD_SPAN": "6.45",
        "SAT1_ACTUAL_OD_SPAN_UNIT": "d",
        "SAT1_OBS_AVAILABLE": "217",
        "SAT1_OBS_USED": "216",
        "SAT1_RESIDUALS_ACCEPTED": "99.8",
        "SAT1_RESIDUALS_ACCEPTED_UNIT": "%",
        "SAT1_WEIGHTED_RMS": "1.023",
        "SAT1_COMMENT_APOGEE": "Apogee Altitude = 794   [km]",
        "SAT1_COMMENT_PERIGEE": "Perigee Altitude = 684   [km]",
        "SAT1_COMMENT_INCLINATION": "Inclination = 48.3  [deg]",
        "SAT1_COMMENT_OPERATOR_HARD_BODY_RADIUS": null,
        "SAT1_AREA_PC": "0.7968",
        "SAT1_AREA_PC_UNIT": "m**2",
        "SAT1_CD_AREA_OVER_MASS": "0.012453128001",
        "SAT1_CD_AREA_OVER_MASS_UNIT": "m**2\/kg",
        "SAT1_CR_AREA_OVER_MASS": "0.015424492332",
        "SAT1_CR_AREA_OVER_MASS_UNIT": "m**2\/kg",
        "SAT1_THRUST_ACCELERATION": "0",
        "SAT1_THRUST_ACCELERATION_UNIT": "m\/s**2",
        "SAT1_SEDR": "0.0000117355",
        "SAT1_SEDR_UNIT": "W\/kg",
        "SAT1_X": "-1484.865223",
        "SAT1_X_UNIT": "km",
        "SAT1_Y": "-5293.446853",
        "SAT1_Y_UNIT": "km",
        "SAT1_Z": "-4495.437378",
        "SAT1_Z_UNIT": "km",
        "SAT1_X_DOT": "6.464033802",
        "SAT1_X_DOT_UNIT": "km\/s",
        "SAT1_Y_DOT": "0.661818202",
        "SAT1_Y_DOT_UNIT": "km\/s",
        "SAT1_Z_DOT": "-3.00266646",
        "SAT1_Z_DOT_UNIT": "km\/s",
        "SAT1_COMMENT_DCP_DENSITY_FORECAST_UNCERTAINTY": "DCP Density Forecast Uncertainty = 1.200000000000000E-01",
        "SAT1_COMMENT_DCP_SENSITIVITY_VECTOR_POSITION": "DCP Sensitivity Vector RTN Pos = 2.589662547336906E+00  5.259290974963794E+02  -2.232222004604183E-01 [m]",
        "SAT1_COMMENT_DCP_SENSITIVITY_VECTOR_VELOCITY": "DCP Sensitivity Vector RTN Vel = -5.543064082361248E-01 3.460173867094014E-04  1.028029160103012E-03  [m\/sec]",
        "SAT1_CR_R": "99.64363206828475",
        "SAT1_CR_R_UNIT": "m**2",
        "SAT1_CT_R": "877.2210070811166",
        "SAT1_CT_R_UNIT": "m**2",
        "SAT1_CT_T": "22486.67143317358",
        "SAT1_CT_T_UNIT": "m**2",
        "SAT1_CN_R": "-4.426324899888984",
        "SAT1_CN_R_UNIT": "m**2",
        "SAT1_CN_T": "-79.04618434539326",
        "SAT1_CN_T_UNIT": "m**2",
        "SAT1_CN_N": "9.972811643135275",
        "SAT1_CN_N_UNIT": "m**2",
        "SAT1_CRDOT_R": "-0.757983533335847",
        "SAT1_CRDOT_R_UNIT": "m**2\/s",
        "SAT1_CRDOT_T": "-22.05695726360436",
        "SAT1_CRDOT_T_UNIT": "m**2\/s",
        "SAT1_CRDOT_N": "0.06667485976322589",
        "SAT1_CRDOT_N_UNIT": "m**2\/s",
        "SAT1_CRDOT_RDOT": "0.02186195078901758",
        "SAT1_CRDOT_RDOT_UNIT": "m**2\/s**2",
        "SAT1_CTDOT_R": "-0.1002529756535589",
        "SAT1_CTDOT_R_UNIT": "m**2\/s",
        "SAT1_CTDOT_T": "-0.7910093982670016",
        "SAT1_CTDOT_T_UNIT": "m**2\/s",
        "SAT1_CTDOT_N": "0.004261324507615231",
        "SAT1_CTDOT_N_UNIT": "m**2\/s",
        "SAT1_CTDOT_RDOT": "0.0006669144121043411",
        "SAT1_CTDOT_RDOT_UNIT": "m**2\/s**2",
        "SAT1_CTDOT_TDOT": "0.00010143636145935",
        "SAT1_CTDOT_TDOT_UNIT": "m**2\/s**2",
        "SAT1_CNDOT_R": "-0.01819098352320929",
        "SAT1_CNDOT_R_UNIT": "m**2\/s",
        "SAT1_CNDOT_T": "-0.08155327553630526",
        "SAT1_CNDOT_T_UNIT": "m**2\/s",
        "SAT1_CNDOT_N": "0.001283719767416782",
        "SAT1_CNDOT_N_UNIT": "m**2\/s",
        "SAT1_CNDOT_RDOT": "0.00006416974191712687",
        "SAT1_CNDOT_RDOT_UNIT": "m**2\/s**2",
        "SAT1_CNDOT_TDOT": "0.00001877267585691071",
        "SAT1_CNDOT_TDOT_UNIT": "m**2\/s**2",
        "SAT1_CNDOT_NDOT": "0.00004526761416835857",
        "SAT1_CNDOT_NDOT_UNIT": "m**2\/s**2",
        "SAT1_CDRG_R": "0",
        "SAT1_CDRG_R_UNIT": "m**3\/kg",
        "SAT1_CDRG_T": "0",
        "SAT1_CDRG_T_UNIT": "m**3\/kg",
        "SAT1_CDRG_N": "0",
        "SAT1_CDRG_N_UNIT": "m**3\/kg",
        "SAT1_CDRG_RDOT": "0",
        "SAT1_CDRG_RDOT_UNIT": "m**3\/(kg*s)",
        "SAT1_CDRG_TDOT": "0",
        "SAT1_CDRG_TDOT_UNIT": "m**3\/(kg*s)",
        "SAT1_CDRG_NDOT": "0",
        "SAT1_CDRG_NDOT_UNIT": "m**3\/(kg*s)",
        "SAT1_CDRG_DRG": "0",
        "SAT1_CDRG_DRG_UNIT": "m**4\/kg**2",
        "SAT1_CSRP_R": "0",
        "SAT1_CSRP_R_UNIT": "m**3\/kg",
        "SAT1_CSRP_T": "0",
        "SAT1_CSRP_T_UNIT": "m**3\/kg",
        "SAT1_CSRP_N": "0",
        "SAT1_CSRP_N_UNIT": "m**3\/kg",
        "SAT1_CSRP_RDOT": "0",
        "SAT1_CSRP_RDOT_UNIT": "m**3\/(kg*s)",
        "SAT1_CSRP_TDOT": "0",
        "SAT1_CSRP_TDOT_UNIT": "m**3\/(kg*s)",
        "SAT1_CSRP_NDOT": "0",
        "SAT1_CSRP_NDOT_UNIT": "m**3\/(kg*s)",
        "SAT1_CSRP_DRG": "0",
        "SAT1_CSRP_DRG_UNIT": "m**4\/kg**2",
        "SAT1_CSRP_SRP": "0",
        "SAT1_CSRP_SRP_UNIT": "m**4\/kg**2",
        "SAT2_COMMENT_SCREENING_DATA_SOURCE": "Screened with = inertial state vector.",
        "SAT2_OBJECT": "OBJECT2",
        "SAT2_OBJECT_DESIGNATOR": "35929",
        "SAT2_CATALOG_NAME": "SATCAT",
        "SAT2_OBJECT_NAME": "IRIDIUM 33 DEB",
        "SAT2_INTERNATIONAL_DESIGNATOR": "1997-051UN",
        "SAT2_OBJECT_TYPE": "DEBRIS",
        "SAT2_OPERATOR_CONTACT_POSITION": "https:\/\/www.space-track.org\/expandedspacedata\/query\/class\/organization\/object\/~~35929\/orderby\/ORG_NAME,INFO_ID\/format\/html\/emptyresult\/show\/",
        "SAT2_OPERATOR_ORGANIZATION": "NONE",
        "SAT2_OPERATOR_PHONE": "https:\/\/www.space-track.org\/expandedspacedata\/query\/class\/organization\/object\/~~35929\/orderby\/ORG_NAME,INFO_ID\/format\/html\/emptyresult\/show\/",
        "SAT2_OPERATOR_EMAIL": "https:\/\/www.space-track.org\/expandedspacedata\/query\/class\/organization\/object\/~~35929\/orderby\/ORG_NAME,INFO_ID\/format\/html\/emptyresult\/show\/",
        "SAT2_EPHEMERIS_NAME": "NONE",
        "SAT2_COVARIANCE_METHOD": "CALCULATED",
        "SAT2_MANEUVERABLE": "N\/A",
        "SAT2_REF_FRAME": "ITRF",
        "SAT2_GRAVITY_MODEL": "EGM-96: 36D 36O",
        "SAT2_ATMOSPHERIC_MODEL": "JBH09",
        "SAT2_N_BODY_PERTURBATIONS": "MOON,SUN",
        "SAT2_SOLAR_RAD_PRESSURE": "YES",
        "SAT2_EARTH_TIDES": "YES",
        "SAT2_INTRACK_THRUST": "NO",
        "SAT2_COMMENT_COVARIANCE_SCALE_FACTOR": "Covariance Scale Factor = 1.000000",
        "SAT2_COMMENT_EXCLUSION_VOLUME_RADIUS": "Exclusion Volume Radius = 1.000000 [m]",
        "SAT2_TIME_LASTOB_START": "2019-09-01 16:50:37",
        "SAT2_TIME_LASTOB_START_FRACTION": "0",
        "SAT2_TIME_LASTOB_END": "2020-02-26 16:50:37",
        "SAT2_TIME_LASTOB_END_FRACTION": "0",
        "SAT2_RECOMMENDED_OD_SPAN": "15.96",
        "SAT2_RECOMMENDED_OD_SPAN_UNIT": "d",
        "SAT2_ACTUAL_OD_SPAN": "15.96",
        "SAT2_ACTUAL_OD_SPAN_UNIT": "d",
        "SAT2_OBS_AVAILABLE": "63",
        "SAT2_OBS_USED": "63",
        "SAT2_RESIDUALS_ACCEPTED": "100",
        "SAT2_RESIDUALS_ACCEPTED_UNIT": "%",
        "SAT2_WEIGHTED_RMS": "2.153",
        "SAT2_COMMENT_APOGEE": "Apogee Altitude = 756   [km]",
        "SAT2_COMMENT_PERIGEE": "Perigee Altitude = 700   [km]",
        "SAT2_COMMENT_INCLINATION": "Inclination = 86.4  [deg]",
        "SAT2_COMMENT_OPERATOR_HARD_BODY_RADIUS": null,
        "SAT2_AREA_PC": "0.014",
        "SAT2_AREA_PC_UNIT": "m**2",
        "SAT2_CD_AREA_OVER_MASS": "0.192312125547",
        "SAT2_CD_AREA_OVER_MASS_UNIT": "m**2\/kg",
        "SAT2_CR_AREA_OVER_MASS": "0.100848741684",
        "SAT2_CR_AREA_OVER_MASS_UNIT": "m**2\/kg",
        "SAT2_THRUST_ACCELERATION": "0",
        "SAT2_THRUST_ACCELERATION_UNIT": "m\/s**2",
        "SAT2_SEDR": "0.000237378",
        "SAT2_SEDR_UNIT": "W\/kg",
        "SAT2_X": "-1484.285818",
        "SAT2_X_UNIT": "km",
        "SAT2_Y": "-5292.263622",
        "SAT2_Y_UNIT": "km",
        "SAT2_Z": "-4494.23968",
        "SAT2_Z_UNIT": "km",
        "SAT2_X_DOT": "-1.063675697",
        "SAT2_X_DOT_UNIT": "km\/s",
        "SAT2_Y_DOT": "-4.585064279",
        "SAT2_Y_DOT_UNIT": "km\/s",
        "SAT2_Z_DOT": "5.79176252",
        "SAT2_Z_DOT_UNIT": "km\/s",
        "SAT2_COMMENT_DCP_DENSITY_FORECAST_UNCERTAINTY": "DCP Density Forecast Uncertainty = 1.200000000000000E-01",
        "SAT2_COMMENT_DCP_SENSITIVITY_VECTOR_POSITION": "DCP Sensitivity Vector RTN Pos = -6.325326156245897E+01 1.019358089630228E+04  1.350303827522672E+00  [m]",
        "SAT2_COMMENT_DCP_SENSITIVITY_VECTOR_VELOCITY": "DCP Sensitivity Vector RTN Vel = -1.076462035157589E+01 2.955426676680361E-02  1.556450454680763E-03  [m\/sec]",
        "SAT2_CR_R": "211.5189133059618",
        "SAT2_CR_R_UNIT": "m**2",
        "SAT2_CT_R": "-11074.05902817656",
        "SAT2_CT_R_UNIT": "m**2",
        "SAT2_CT_T": "1805633.075022246",
        "SAT2_CT_T_UNIT": "m**2",
        "SAT2_CN_R": "51.98576102432443",
        "SAT2_CN_R_UNIT": "m**2",
        "SAT2_CN_T": "952.6244095306695",
        "SAT2_CN_T_UNIT": "m**2",
        "SAT2_CN_N": "147.3578567617173",
        "SAT2_CN_N_UNIT": "m**2",
        "SAT2_CRDOT_R": "11.66072173838143",
        "SAT2_CRDOT_R_UNIT": "m**2\/s",
        "SAT2_CRDOT_T": "-1905.101963799188",
        "SAT2_CRDOT_T_UNIT": "m**2\/s",
        "SAT2_CRDOT_N": "-0.9638683577874753",
        "SAT2_CRDOT_N_UNIT": "m**2\/s",
        "SAT2_CRDOT_RDOT": "2.010335949942499",
        "SAT2_CRDOT_RDOT_UNIT": "m**2\/s**2",
        "SAT2_CTDOT_R": "-0.1839373461037563",
        "SAT2_CTDOT_R_UNIT": "m**2\/s",
        "SAT2_CTDOT_T": "5.254020059687996",
        "SAT2_CTDOT_T_UNIT": "m**2\/s",
        "SAT2_CTDOT_N": "-0.05751692046442391",
        "SAT2_CTDOT_N_UNIT": "m**2\/s",
        "SAT2_CTDOT_RDOT": "-0.005515915525478515",
        "SAT2_CTDOT_RDOT_UNIT": "m**2\/s**2",
        "SAT2_CTDOT_TDOT": "0.0001756777959155129",
        "SAT2_CTDOT_TDOT_UNIT": "m**2\/s**2",
        "SAT2_CNDOT_R": "-0.0034929837049793",
        "SAT2_CNDOT_R_UNIT": "m**2\/s",
        "SAT2_CNDOT_T": "0.2037026381936056",
        "SAT2_CNDOT_T_UNIT": "m**2\/s",
        "SAT2_CNDOT_N": "0.02768613516313335",
        "SAT2_CNDOT_N_UNIT": "m**2\/s",
        "SAT2_CNDOT_RDOT": "-0.0002463188562743526",
        "SAT2_CNDOT_RDOT_UNIT": "m**2\/s**2",
        "SAT2_CNDOT_TDOT": "0.000002732633385039978",
        "SAT2_CNDOT_TDOT_UNIT": "m**2\/s**2",
        "SAT2_CNDOT_NDOT": "0.0001134460831435428",
        "SAT2_CNDOT_NDOT_UNIT": "m**2\/s**2",
        "SAT2_CDRG_R": "0",
        "SAT2_CDRG_R_UNIT": "m**3\/kg",
        "SAT2_CDRG_T": "0",
        "SAT2_CDRG_T_UNIT": "m**3\/kg",
        "SAT2_CDRG_N": "0",
        "SAT2_CDRG_N_UNIT": "m**3\/kg",
        "SAT2_CDRG_RDOT": "0",
        "SAT2_CDRG_RDOT_UNIT": "m**3\/(kg*s)",
        "SAT2_CDRG_TDOT": "0",
        "SAT2_CDRG_TDOT_UNIT": "m**3\/(kg*s)",
        "SAT2_CDRG_NDOT": "0",
        "SAT2_CDRG_NDOT_UNIT": "m**3\/(kg*s)",
        "SAT2_CDRG_DRG": "0",
        "SAT2_CDRG_DRG_UNIT": "m**4\/kg**2",
        "SAT2_CSRP_R": "0",
        "SAT2_CSRP_R_UNIT": "m**3\/kg",
        "SAT2_CSRP_T": "0",
        "SAT2_CSRP_T_UNIT": "m**3\/kg",
        "SAT2_CSRP_N": "0",
        "SAT2_CSRP_N_UNIT": "m**3\/kg",
        "SAT2_CSRP_RDOT": "0",
        "SAT2_CSRP_RDOT_UNIT": "m**3\/(kg*s)",
        "SAT2_CSRP_TDOT": "0",
        "SAT2_CSRP_TDOT_UNIT": "m**3\/(kg*s)",
        "SAT2_CSRP_NDOT": "0",
        "SAT2_CSRP_NDOT_UNIT": "m**3\/(kg*s)",
        "SAT2_CSRP_DRG": "0",
        "SAT2_CSRP_DRG_UNIT": "m**4\/kg**2",
        "SAT2_CSRP_SRP": "0",
        "SAT2_CSRP_SRP_UNIT": "m**4\/kg**2",
        "GID": "462"
    }
]